0 DELTA 1 DEB
1 12230U 78026BX  13282.43102324  .00001789  00000-0  35790-3 0  8874
2 12230 098.0648 336.4894 0078571 142.9035 344.3192 14.61103437720032
0 DELTA 1 DEB
1 12230U 78026BX  13283.45886672  .00001739  00000-0  34816-3 0  8886
2 12230 098.0647 337.4911 0078609 139.7188 350.6972 14.61106870720183
0 DELTA 1 DEB
1 12230U 78026BX  13286.18717069  .00002039  00000-0  40635-3 0  8905
2 12230 098.0651 340.1498 0078649 131.1843 301.5297 14.61113475720585
0 DELTA 1 DEB
1 12230U 78026BX  13287.43017812  .00002465  00000-0  48924-3 0  8916
2 12230 098.0650 341.3615 0078629 127.3686 359.6884 14.61116671720765
0 DELTA 1 DEB
1 12230U 78026BX  13288.45512565  .00003310  00000-0  65355-3 0  8922
2 12230 098.0646 342.3605 0078634 124.2001 350.9017 14.61125505720918
0 DELTA 1 DEB
1 12230U 78026BX  13289.82290041  .00002962  00000-0  58576-3 0  8936
2 12230 098.0639 343.6935 0078655 119.9698 345.4238 14.61132861721116
0 DELTA 1 DEB
1 12230U 78026BX  13290.90881611  .00002721  00000-0  53878-3 0  8940
2 12230 098.0634 344.7519 0078672 116.6269 297.3739 14.61137679721278
0 DELTA 1 DEB
1 12230U 78026BX  13292.07477647  .00002675  00000-0  52986-3 0  8958
2 12230 098.0631 345.8880 0078622 113.0429 310.3783 14.61142272721441
0 DELTA 1 DEB
1 12230U 78026BX  13293.10165846  .00002858  00000-0  56535-3 0  8966
2 12230 098.0628 346.8888 0078601 109.8650 311.8625 14.61146164721593
0 DELTA 1 DEB
1 12230U 78026BX  13294.12727257  .00003018  00000-0  59634-3 0  8972
2 12230 098.0626 347.8881 0078597 106.7001 306.6853 14.61151006721748
0 DELTA 1 DEB
1 12230U 78026BX  13295.71602027  .00002945  00000-0  58199-3 0  8989
2 12230 098.0624 349.4359 0078639 101.7891 023.6799 14.61159135721974
